[{"OBJECT_NAME":"JILIN-01 KUANFU 02B 3","OBJECT_ID":"2024-169C","EPOCH":"2026-03-09T22:06:48.862368","MEAN_MOTION":15.0924242,"ECCENTRICITY":0.00160506,"INCLINATION":97.5557,"RA_OF_ASC_NODE":159.7436,"ARG_OF_PERICENTER":304.8201,"MEAN_ANOMALY":55.1517,"EPHEMERIS_TYPE":0,"CLASSIFICATION_TYPE":"U","NORAD_CAT_ID":61191,"ELEMENT_SET_NO":999,"REV_AT_EPOCH":8085,"BSTAR":0.00039569069,"MEAN_MOTION_DOT":6.253e-5,"MEAN_MOTION_DDOT":0},{"OBJECT_NAME":"STARLINK-34703","OBJECT_ID":"2025-191J","EPOCH":"2026-03-09T15:25:19.693056","MEAN_MOTION":15.05650979,"ECCENTRICITY":0.0002511,"INCLINATION":97.6023,"RA_OF_ASC_NODE":301.5004,"ARG_OF_PERICENTER":76.2496,"MEAN_ANOMALY":283.901,"EPHEMERIS_TYPE":0,"CLASSIFICATION_TYPE":"U","NORAD_CAT_ID":65387,"ELEMENT_SET_NO":999,"REV_AT_EPOCH":3026,"BSTAR":0.00034514,"MEAN_MOTION_DOT":4.923e-5,"MEAN_MOTION_DDOT":0}]
